OBJECT_NAME,OBJECT_ID,EPOCH,MEAN_MOTION,ECCENTRICITY,INCLINATION,RA_OF_ASC_NODE,ARG_OF_PERICENTER,MEAN_ANOMALY,EPHEMERIS_TYPE,CLASSIFICATION_TYPE,NORAD_CAT_ID,ELEMENT_SET_NO,REV_AT_EPOCH,BSTAR,MEAN_MOTION_DOT,MEAN_MOTION_DDOT
ONEWEB-0198,2021-031G,2026-07-11T19:30:21.656160,13.14502934,.00025006,87.8961,284.8027,101.1601,258.9810,0,U,48216,999,25172,-.33783504E-3,-.112E-5,0
ONEWEB-0189,2021-031H,2026-07-11T17:58:49.051776,13.14502069,.00024038,87.8972,284.8047,101.9100,258.2299,0,U,48217,999,25145,-.6741106E-3,-.237E-5,0
ONEWEB-0196,2021-031J,2026-07-11T19:16:27.558336,13.14502362,.00021269,87.8972,284.8024,99.2157,260.9213,0,U,48218,999,25146,-.13266077E-4,.8E-7,0
ONEWEB-0183,2021-031K,2026-07-11T18:39:55.251648,13.14502010,.0002008,87.8968,284.8053,93.2374,266.8986,0,U,48219,999,25155,.46358E-3,.185E-5,0
ONEWEB-0185,2021-031L,2026-07-11T19:17:34.854432,13.14503384,.00022782,87.8976,284.7954,89.4532,270.6859,0,U,48220,999,25148,-.85026701E-4,-.19E-6,0
ONEWEB-0187,2021-031M,2026-07-11T18:48:51.160608,13.14502652,.00021388,87.8966,284.8142,101.7933,258.3437,0,U,48221,999,25149,.47448167E-3,.189E-5,0
ONEWEB-0192,2021-031N,2026-07-11T18:05:40.183584,13.14502893,.00021523,87.8968,284.8095,101.4787,258.6584,0,U,48222,999,25140,-.59058444E-3,-.206E-5,0
ONEWEB-0219,2021-031P,2026-07-11T19:25:34.429728,13.14503748,.00021744,87.8981,284.7902,97.0196,263.1181,0,U,48223,999,25161,-.1762682E-3,-.53E-6,0
ONEWEB-0202,2021-031Q,2026-07-11T18:58:12.296640,13.14498033,.00028068,87.8984,284.8081,109.2422,250.9011,0,U,48224,999,25159,-.9109794E-3,-.325E-5,0
ONEWEB-0204,2021-031R,2026-07-11T17:57:39.465216,13.14499305,.00018645,87.8973,284.8101,87.5526,272.5818,0,U,48225,999,25148,-.66228936E-3,-.233E-5,0
ONEWEB-0205,2021-031S,2026-07-11T19:11:53.294496,13.14502414,.00022655,87.8974,284.7955,99.4917,260.6469,0,U,48226,999,25150,.82797416E-4,.43E-6,0
ONEWEB-0206,2021-031T,2026-07-11T18:33:03.758688,13.14501519,.00019179,87.8971,284.8006,101.0827,259.0519,0,U,48227,999,25145,.19959869E-3,.87E-6,0
ONEWEB-0182,2021-031U,2026-07-11T18:26:12.436800,13.14503748,.00019612,87.8968,284.8084,93.3337,266.8017,0,U,48228,999,25166,.2828228E-4,.23E-6,0
ONEWEB-0186,2021-031V,2026-07-11T18:42:12.224160,13.14502661,.00021608,87.8979,284.7990,97.9339,262.2036,0,U,48229,999,25161,.45202192E-3,.18E-5,0
ONEWEB-0181,2021-031W,2026-07-11T18:10:12.430848,13.14502546,.0002273,87.8959,284.8281,99.2598,260.8789,0,U,48230,999,25146,-.85354178E-3,-.304E-5,0
ONEWEB-0188,2021-031X,2026-07-11T19:05:01.977792,13.14502215,.00020438,87.8966,284.8197,100.3508,259.7852,0,U,48231,999,25137,.24703324E-3,.104E-5,0
ONEWEB-0220,2021-031Y,2026-07-11T18:12:29.683296,13.14503707,.00023085,87.8976,284.8042,93.6779,266.4614,0,U,48232,999,25163,-.34385983E-3,-.115E-5,0
ONEWEB-0165,2021-031Z,2026-07-11T18:53:37.771008,13.14502546,.00024545,87.8971,284.8099,102.6803,257.4602,0,U,48233,999,25159,.243385E-3,.103E-5,0
ONEWEB-0199,2021-031AA,2026-07-11T18:30:47.288160,13.14501396,.00019144,87.8975,284.8003,99.9221,260.2125,0,U,48234,999,25149,.32020384E-4,.25E-6,0
ONEWEB-0203,2021-031AB,2026-07-11T18:17:04.592544,13.14501276,.00020525,87.8974,284.8051,103.7894,256.3464,0,U,48235,999,25150,-.2224427E-3,-.7E-6,0
ONEWEB-0197,2021-031AC,2026-07-11T19:29:56.813568,13.14501622,.00020301,87.8966,284.7793,91.4968,268.6395,0,U,48236,999,25142,-.59530713E-3,-.208E-5,0
ONEWEB-0194,2021-031AD,2026-07-11T19:00:27.944640,13.14503902,.00018413,87.8968,284.8068,105.9202,254.2130,0,U,48237,999,25159,.59301821E-3,.233E-5,0
ONEWEB-0193,2021-031AE,2026-07-11T19:23:18.396384,13.14501820,.00017811,87.8972,284.7934,110.6357,249.4964,0,U,48238,999,25154,-.41492382E-3,-.141E-5,0
ONEWEB-0191,2021-031AF,2026-07-11T17:49:40.489536,13.14506060,.00020014,87.8979,284.8070,94.7086,265.4272,0,U,48239,999,25139,-.68905873E-3,-.243E-5,0
ONEWEB-0195,2021-031AG,2026-07-11T19:06:10.793664,13.14502878,.00024555,87.8976,284.7968,100.4030,259.7376,0,U,48240,999,25138,.17647827E-3,.78E-6,0
ONEWEB-0201,2021-031AH,2026-07-11T16:59:38.143968,13.14502080,.00021128,87.8971,284.8284,91.0441,269.0930,0,U,48241,999,25160,.47215844E-3,.188E-5,0
ONEWEB-0207,2021-031AJ,2026-07-11T18:20:28.999392,13.14502018,.00021276,87.8975,284.8035,90.8577,269.2796,0,U,48242,999,25152,-.97741073E-3,-.35E-5,0
ONEWEB-0208,2021-031AK,2026-07-11T17:54:14.463072,13.14501763,.00024164,87.8970,284.8129,103.9196,256.2203,0,U,48243,999,25153,-.77510874E-3,-.275E-5,0
ONEWEB-0200,2021-031AL,2026-07-11T18:51:20.574720,13.14502180,.00021097,87.8982,284.7934,98.1067,262.0302,0,U,48244,999,25146,.54345886E-3,.214E-5,0
ONEWEB-0217,2021-031AM,2026-07-11T19:14:10.258368,13.14502592,.00023137,87.8978,284.7950,101.5069,258.6320,0,U,48245,999,25141,.34576542E-4,.26E-6,0
